[{"OBJECT_NAME":"STARLINK-2082","OBJECT_ID":"2021-005U","EPOCH":"2026-03-10T00:00:02.999808","MEAN_MOTION":15.10665418,"ECCENTRICITY":0.00013063,"INCLINATION":53.0689,"RA_OF_ASC_NODE":60.189,"ARG_OF_PERICENTER":118.0574,"MEAN_ANOMALY":150.7712,"EPHEMERIS_TYPE":0,"CLASSIFICATION_TYPE":"U","NORAD_CAT_ID":47367,"ELEMENT_SET_NO":999,"REV_AT_EPOCH":534,"BSTAR":0.0045007601,"MEAN_MOTION_DOT":0.00075839,"MEAN_MOTION_DDOT":0},{"OBJECT_NAME":"CZ-4B DEB","OBJECT_ID":"2008-053J","EPOCH":"2026-03-09T11:59:22.469568","MEAN_MOTION":15.1637526,"ECCENTRICITY":0.00601661,"INCLINATION":97.7872,"RA_OF_ASC_NODE":170.5072,"ARG_OF_PERICENTER":304.792,"MEAN_ANOMALY":54.7659,"EPHEMERIS_TYPE":0,"CLASSIFICATION_TYPE":"U","NORAD_CAT_ID":35573,"ELEMENT_SET_NO":999,"REV_AT_EPOCH":91868,"BSTAR":0.0017688276,"MEAN_MOTION_DOT":0.00036031,"MEAN_MOTION_DDOT":0}]
